OBJECT_NAME,OBJECT_ID,EPOCH,MEAN_MOTION,ECCENTRICITY,INCLINATION,RA_OF_ASC_NODE,ARG_OF_PERICENTER,MEAN_ANOMALY,EPHEMERIS_TYPE,CLASSIFICATION_TYPE,NORAD_CAT_ID,ELEMENT_SET_NO,REV_AT_EPOCH,BSTAR,MEAN_MOTION_DOT,MEAN_MOTION_DDOT
SIRION PATHFINDER-2,2018-099B,2026-05-20T13:30:21.471264,15.14264907,.00097029,97.4267,190.2795,44.9718,315.2298,0,U,43759,999,40844,.19530541E-3,.3511E-4,0
CORVUS BC4,2018-099K,2026-05-20T14:21:27.818496,15.12241662,.00100908,97.4085,184.3885,96.7989,263.4390,0,U,43767,999,40823,.18764536E-3,.3183E-4,0
M2 PATHFINDER,2020-037E,2026-05-20T12:20:22.776864,15.04539315,.00099994,97.8158,331.4369,242.7034,117.3174,0,U,45727,999,32133,.74278328E-4,.978E-5,0
NETSAT-4,2020-068U,2026-05-20T23:00:53.047584,15.42862153,.00073029,97.8616,147.0338,69.3171,290.8858,0,U,46504,999,31157,.27705354E-3,.12073E-3,0
NETSAT-3,2020-068V,2026-05-20T22:39:17.535744,15.41638195,.0007376,97.8665,145.2693,82.3263,277.8820,0,U,46505,999,31148,.30377207E-3,.12716E-3,0
NETSAT-1,2020-068W,2026-05-20T22:32:28.032576,15.33902178,.00069817,97.8754,139.9109,102.0976,258.1048,0,U,46506,999,31112,.28410244E-3,.9237E-4,0
NETSAT-2,2020-068X,2026-05-20T21:42:35.673984,15.44715212,.00062482,97.8632,146.7759,92.5445,267.6517,0,U,46507,999,31152,.33603706E-3,.15614E-3,0
GREENCUBE (IO-117),2022-080E,2026-05-20T11:32:39.901632,6.42583336,.00088379,70.1431,307.8842,296.2012,63.7739,0,U,53109,999,9028,0,-.3E-7,0
SITRO-AIS 5 (KATYS),2023-091L,2026-05-20T21:54:00.423360,15.28749548,.00114964,97.5068,204.5649,190.6400,169.4598,0,U,57176,999,16017,.3058973E-3,.8489E-4,0
SITRO-AIS 6 (CHIRKIN),2023-091AC,2026-05-20T23:03:32.982624,15.25350808,.00116407,97.5076,203.8744,193.8382,166.2538,0,U,57192,999,16013,.2621467E-3,.6549E-4,0
SITRO-AIS 8 (ANOKHIN),2023-091AD,2026-05-20T21:51:32.722560,15.31305211,.00108207,97.5065,206.0438,186.1547,173.9562,0,U,57193,999,16027,.32176797E-3,.9668E-4,0
SITRO-AIS 7 (FARTUSHNIY),2023-091AE,2026-05-20T23:00:13.876416,15.25052095,.00114455,97.5074,203.7109,194.8602,165.2301,0,U,57194,999,16012,.25537895E-3,.632E-4,0
SITRO-AIS 10 (BURDAEV),2023-091AK,2026-05-20T22:10:50.232000,15.37461237,.0007741,97.5086,210.8371,160.2453,199.9092,0,U,57199,999,16057,.36616068E-3,.13387E-3,0
SITRO-AIS 9 (SHCHUKIN),2023-091AM,2026-05-20T22:36:49.845312,15.37004819,.00079492,97.5085,210.6063,160.5688,199.5861,0,U,57201,999,16056,.37278163E-3,.13432E-3,0
SITRO-AIS 12 (SMIRENNIY),2023-091AQ,2026-05-20T22:30:39.877920,15.37291007,.00077108,97.5097,211.0521,155.1875,204.9741,0,U,57204,999,16058,.3751048E-3,.13641E-3,0
SITRO-AIS 11 (SHEFFER),2023-091AU,2026-05-20T23:00:29.622816,15.37688962,.00076182,97.5096,211.3033,155.0312,205.1302,0,U,57208,999,16060,.36969307E-3,.13617E-3,0
SITRO-AIS 25,2024-039R,2026-05-20T23:19:43.791168,14.93311190,.01471458,95.3915,216.3931,63.7261,297.8998,0,U,59066,999,12066,.2281177E-3,.2924E-4,0
SITRO-AIS 26,2024-039S,2026-05-20T23:16:24.747168,14.93112658,.01474741,95.3916,216.2948,64.2709,297.3656,0,U,59067,999,12065,.21752512E-3,.2774E-4,0
SITRO-AIS 27,2024-039T,2026-05-20T22:44:29.133024,14.93522942,.01464484,95.3917,216.5387,63.0523,298.5576,0,U,59068,999,12067,.24876475E-3,.3204E-4,0
SITRO-AIS 28,2024-039U,2026-05-20T23:49:22.328256,14.93558435,.01462658,95.3917,216.6154,62.7168,298.8867,0,U,59071,999,12068,.22291538E-3,.2869E-4,0
GRBBETA,2024-128C,2026-05-20T22:34:29.329536,15.06387472,.00443956,61.9903,311.8442,129.0524,231.4532,0,U,60237,999,10216,.21532655E-3,.3036E-4,0
OOV-CUBE (TUBSAT-30),2024-128F,2026-05-20T18:33:21.220992,15.02615779,.00480862,61.9944,321.1545,127.8023,232.7437,0,U,60240,999,10199,.13424106E-3,.1624E-4,0
ROBUSTA-3A (MEDITERRANEE),2024-128J,2026-05-20T21:04:51.405600,15.11195263,.00452481,61.9870,304.7859,122.7731,237.7736,0,U,60243,999,10229,.35523043E-3,.5917E-4,0
LASARSAT,2024-247Q,2026-05-20T19:53:01.858272,15.44503182,.00058604,44.9760,55.7382,176.3157,183.7776,0,U,62391,999,7908,.47395813E-3,.22182E-3,0
CROCUBE,2024-247T,2026-05-20T03:31:26.575968,15.46099852,.00054203,44.9733,57.3164,174.7904,185.3043,0,U,62394,999,7900,.53126487E-3,.26334E-3,0
FORESAIL-1 PRIME,2025-276DS,2026-05-20T18:46:41.269440,15.18417347,.00025494,97.4203,214.5595,163.8422,196.2894,0,U,66778,999,2624,.15246557E-3,.307E-4,0
KNACKSAT-2,1998-067XZ,2026-05-20T23:22:13.026432,15.57378224,.00120866,51.6306,71.0942,99.7752,260.4606,0,U,67683,999,1603,.41240218E-3,.30491E-3,0
